start=new Date('2022-09-19T00:00:00.000Z').valueOf();
sats=[{"TLE_LINE2":"2 53668  97.6554 140.5590 0001777 131.8470 257.0589 15.59645919  1300","LAUNCH_DATE":"2022-08-31","OBJECT_TYPE":"PAYLOAD","RCS_SIZE":"LARGE","MEAN_ANOMALY":"257.0589","NORAD_CAT_ID":"53668","MEAN_MOTION_DOT":"-0.01209923","TLE_LINE1":"1 53668U 22105W   22261.91667824 -.01209923  00000-0 -16923-1 0  9994","MEAN_ELEMENT_THEORY":"SGP4","DECAY_DATE":null,"PERIAPSIS":"387.481","ARG_OF_PERICENTER":"131.8470","EPHEMERIS_TYPE":"0","MEAN_MOTION":"15.59645919","CLASSIFICATION_TYPE":"U","GP_ID":"212968587","INCLINATION":"97.6554","REF_FRAME":"TEME","REV_AT_EPOCH":"130","APOAPSIS":"389.886","PERIOD":"92.329","TIME_SYSTEM":"UTC","ELEMENT_SET_NO":"999","OBJECT_NAME":"STARLINK-4458","CENTER_NAME":"EARTH","BSTAR":"-0.01692300000000","MEAN_MOTION_DDOT":"0.0000000000000","SITE":"AFWTR","RA_OF_ASC_NODE":"140.5590","OBJECT_ID":"2022-105W","ECCENTRICITY":"0.00017770","COUNTRY_CODE":"US","FILE":"3577422","SEMIMAJOR_AXIS":"6766.818","EPOCH":"2022-09-18T22:00:00.999936"},{"OBJECT_NAME":"STARLINK-4464","TIME_SYSTEM":"UTC","APOAPSIS":"390.207","PERIOD":"92.329","ELEMENT_SET_NO":"999","MEAN_MOTION_DDOT":"0.0000000000000","CENTER_NAME":"EARTH","BSTAR":"-0.01681600000000","MEAN_MOTION":"15.59641205","CLASSIFICATION_TYPE":"U","REF_FRAME":"TEME","REV_AT_EPOCH":"130","GP_ID":"212967920","INCLINATION":"97.6556","FILE":"3577422","SEMIMAJOR_AXIS":"6766.832","COUNTRY_CODE":"US","EPOCH":"2022-09-18T22:00:00.999936","SITE":"AFWTR","OBJECT_ID":"2022-105X","RA_OF_ASC_NODE":"140.5583","ECCENTRICITY":"0.00022320","NORAD_CAT_ID":"53669","MEAN_MOTION_DOT":"-0.01203022","OBJECT_TYPE":"PAYLOAD","TLE_LINE2":"2 53669  97.6556 140.5583 0002232 146.8316 240.8922 15.59641205  1302","LAUNCH_DATE":"2022-08-31","MEAN_ANOMALY":"240.8922","RCS_SIZE":"MEDIUM","ARG_OF_PERICENTER":"146.8316","DECAY_DATE":null,"PERIAPSIS":"387.186","EPHEMERIS_TYPE":"0","TLE_LINE1":"1 53669U 22105X   22261.91667824 -.01203022  00000-0 -16816-1 0  9990","MEAN_ELEMENT_THEORY":"SGP4"},{"MEAN_MOTION_DOT":"-0.01203280","NORAD_CAT_ID":"53670","MEAN_ANOMALY":"234.7378","RCS_SIZE":"MEDIUM","OBJECT_TYPE":"PAYLOAD","LAUNCH_DATE":"2022-08-31","TLE_LINE2":"2 53670  97.6556 140.5574 0002621 155.3547 234.7378 15.59640306  3228","EPHEMERIS_TYPE":"0","ARG_OF_PERICENTER":"155.3547","PERIAPSIS":"386.926","DECAY_DATE":null,"MEAN_ELEMENT_THEORY":"SGP4","TLE_LINE1":"1 53670U 22105Y   22261.91667824 -.01203280  00000-0 -16818-1 0  9990","MEAN_MOTION_DDOT":"0.0000000000000","BSTAR":"-0.01681800000000","CENTER_NAME":"EARTH","OBJECT_NAME":"STARLINK-4459","APOAPSIS":"390.473","PERIOD":"92.329","ELEMENT_SET_NO":"999","TIME_SYSTEM":"UTC","REV_AT_EPOCH":"322","REF_FRAME":"TEME","INCLINATION":"97.6556","GP_ID":"212941029","MEAN_MOTION":"15.59640306","CLASSIFICATION_TYPE":"U","EPOCH":"2022-09-18T22:00:00.999936","SEMIMAJOR_AXIS":"6766.834","FILE":"3577355","COUNTRY_CODE":"US","ECCENTRICITY":"0.00026210","OBJECT_ID":"2022-105Y","SITE":"AFWTR","RA_OF_ASC_NODE":"140.5574"},{"MEAN_MOTION_DOT":"-0.01212492","NORAD_CAT_ID":"53671","MEAN_ANOMALY":"249.0023","RCS_SIZE":"MEDIUM","OBJECT_TYPE":"PAYLOAD","LAUNCH_DATE":"2022-08-31","TLE_LINE2":"2 53671  97.6554 140.5583 0002104 140.4952 249.0023 15.59647253  1309","EPHEMERIS_TYPE":"0","ARG_OF_PERICENTER":"140.4952","PERIAPSIS":"387.255","DECAY_DATE":null,"MEAN_ELEMENT_THEORY":"SGP4","TLE_LINE1":"1 53671U 22105Z   22261.91667824 -.01212492  00000-0 -16960-1 0  9994","MEAN_MOTION_DDOT":"0.0000000000000","BSTAR":"-0.01696000000000","CENTER_NAME":"EARTH","OBJECT_NAME":"STARLINK-4440","ELEMENT_SET_NO":"999","APOAPSIS":"390.103","PERIOD":"92.329","TIME_SYSTEM":"UTC","REV_AT_EPOCH":"130","REF_FRAME":"TEME","INCLINATION":"97.6554","GP_ID":"212967654","CLASSIFICATION_TYPE":"U","MEAN_MOTION":"15.59647253","EPOCH":"2022-09-18T22:00:00.999936","SEMIMAJOR_AXIS":"6766.814","FILE":"3577422","COUNTRY_CODE":"US","ECCENTRICITY":"0.00021040","SITE":"AFWTR","OBJECT_ID":"2022-105Z","RA_OF_ASC_NODE":"140.5583"},{"BSTAR":"-0.01687900000000","CENTER_NAME":"EARTH","MEAN_MOTION_DDOT":"0.0000000000000","APOAPSIS":"389.956","TIME_SYSTEM":"UTC","PERIOD":"92.329","ELEMENT_SET_NO":"999","OBJECT_NAME":"STARLINK-4428","INCLINATION":"97.6555","GP_ID":"212968378","REV_AT_EPOCH":"130","REF_FRAME":"TEME","MEAN_MOTION":"15.59636375","CLASSIFICATION_TYPE":"U","EPOCH":"2022-09-18T22:00:00.999936","COUNTRY_CODE":"US","SEMIMAJOR_AXIS":"6766.846","FILE":"3577422","ECCENTRICITY":"0.00018400","SITE":"AFWTR","RA_OF_ASC_NODE":"140.5575","OBJECT_ID":"2022-105AA","MEAN_MOTION_DOT":"-0.01206720","NORAD_CAT_ID":"53672","RCS_SIZE":"MEDIUM","MEAN_ANOMALY":"256.4891","LAUNCH_DATE":"2022-08-31","TLE_LINE2":"2 53672  97.6555 140.5575 0001840 135.2903 256.4891 15.59636375  1304","OBJECT_TYPE":"PAYLOAD","EPHEMERIS_TYPE":"0","PERIAPSIS":"387.466","DECAY_DATE":null,"ARG_OF_PERICENTER":"135.2903","MEAN_ELEMENT_THEORY":"SGP4","TLE_LINE1":"1 53672U 22105AA  22261.91667824 -.01206720  00000-0 -16879-1 0  9991"},{"ECCENTRICITY":"0.00025780","RA_OF_ASC_NODE":"140.5920","SITE":"AFWTR","OBJECT_ID":"2022-105AB","EPOCH":"2022-09-18T22:00:00.999936","COUNTRY_CODE":"US","FILE":"3577355","SEMIMAJOR_AXIS":"6743.303","GP_ID":"212941529","INCLINATION":"97.6554","REF_FRAME":"TEME","REV_AT_EPOCH":"322","CLASSIFICATION_TYPE":"U","MEAN_MOTION":"15.67810999","CENTER_NAME":"EARTH","BSTAR":"-0.00836610000000","MEAN_MOTION_DDOT":"0.0000000000000","APOAPSIS":"366.907","PERIOD":"91.848","TIME_SYSTEM":"UTC","ELEMENT_SET_NO":"999","OBJECT_NAME":"STARLINK-4456","MEAN_ELEMENT_THEORY":"SGP4","TLE_LINE1":"1 53673U 22105AB  22261.91667824 -.00830505  00000-0 -83661-2 0  9999","EPHEMERIS_TYPE":"0","DECAY_DATE":null,"PERIAPSIS":"363.430","ARG_OF_PERICENTER":"152.9609","RCS_SIZE":"MEDIUM","MEAN_ANOMALY":"309.5790","TLE_LINE2":"2 53673  97.6554 140.5920 0002578 152.9609 309.5790 15.67810999  3222","LAUNCH_DATE":"2022-08-31","OBJECT_TYPE":"PAYLOAD","MEAN_MOTION_DOT":"-0.00830505","NORAD_CAT_ID":"53673"},{"MEAN_ELEMENT_THEORY":"SGP4","TLE_LINE1":"1 53674U 22105AC  22261.91667824 -.01213078  00000-0 -16975-1 0  9994","EPHEMERIS_TYPE":"0","ARG_OF_PERICENTER":"134.3289","DECAY_DATE":null,"PERIAPSIS":"387.430","MEAN_ANOMALY":"258.6328","RCS_SIZE":"LARGE","OBJECT_TYPE":"PAYLOAD","TLE_LINE2":"2 53674  97.6556 140.5571 0001875 134.3289 258.6328 15.59640415  1307","LAUNCH_DATE":"2022-08-31","MEAN_MOTION_DOT":"-0.01213078","NORAD_CAT_ID":"53674","ECCENTRICITY":"0.00018750","OBJECT_ID":"2022-105AC","SITE":"AFWTR","RA_OF_ASC_NODE":"140.5571","EPOCH":"2022-09-18T22:00:00.999936","FILE":"3577422","SEMIMAJOR_AXIS":"6766.834","COUNTRY_CODE":"US","REF_FRAME":"TEME","REV_AT_EPOCH":"130","GP_ID":"212968437","INCLINATION":"97.6556","MEAN_MOTION":"15.59640415","CLASSIFICATION_TYPE":"U","MEAN_MOTION_DDOT":"0.0000000000000","CENTER_NAME":"EARTH","BSTAR":"-0.01697500000000","OBJECT_NAME":"STARLINK-4620","APOAPSIS":"389.968","PERIOD":"92.329","TIME_SYSTEM":"UTC","ELEMENT_SET_NO":"999"},{"RCS_SIZE":"LARGE","MEAN_ANOMALY":"249.4352","LAUNCH_DATE":"2022-08-31","TLE_LINE2":"2 53675  97.6555 140.5577 0002114 141.7458 249.4352 15.59650724  3222","OBJECT_TYPE":"PAYLOAD","MEAN_MOTION_DOT":"-0.01226457","NORAD_CAT_ID":"53675","MEAN_ELEMENT_THEORY":"SGP4","TLE_LINE1":"1 53675U 22105AD  22261.91667824 -.01226457  00000-0 -17175-1 0  9993","EPHEMERIS_TYPE":"0","PERIAPSIS":"387.239","DECAY_DATE":null,"ARG_OF_PERICENTER":"141.7458","INCLINATION":"97.6555","GP_ID":"212941543","REV_AT_EPOCH":"322","REF_FRAME":"TEME","CLASSIFICATION_TYPE":"U","MEAN_MOTION":"15.59650724","BSTAR":"-0.01717500000000","CENTER_NAME":"EARTH","MEAN_MOTION_DDOT":"0.0000000000000","APOAPSIS":"390.100","TIME_SYSTEM":"UTC","PERIOD":"92.328","ELEMENT_SET_NO":"999","OBJECT_NAME":"STARLINK-4617","ECCENTRICITY":"0.00021140","SITE":"AFWTR","RA_OF_ASC_NODE":"140.5577","OBJECT_ID":"2022-105AD","EPOCH":"2022-09-18T22:00:00.999936","COUNTRY_CODE":"US","SEMIMAJOR_AXIS":"6766.804","FILE":"3577356"},{"RCS_SIZE":"MEDIUM","MEAN_ANOMALY":"254.2455","TLE_LINE2":"2 53676  97.6555 140.5562 0002087 139.8998 254.2455 15.59642044  1304","LAUNCH_DATE":"2022-08-31","OBJECT_TYPE":"PAYLOAD","MEAN_MOTION_DOT":"-0.01216448","NORAD_CAT_ID":"53676","MEAN_ELEMENT_THEORY":"SGP4","TLE_LINE1":"1 53676U 22105AE  22261.91667824 -.01216448  00000-0 -17025-1 0  9997","EPHEMERIS_TYPE":"0","DECAY_DATE":null,"PERIAPSIS":"387.282","ARG_OF_PERICENTER":"139.8998","GP_ID":"212968588","INCLINATION":"97.6555","REF_FRAME":"TEME","REV_AT_EPOCH":"130","CLASSIFICATION_TYPE":"U","MEAN_MOTION":"15.59642044","CENTER_NAME":"EARTH","BSTAR":"-0.01702500000000","MEAN_MOTION_DDOT":"0.0000000000000","PERIOD":"92.329","APOAPSIS":"390.106","ELEMENT_SET_NO":"999","TIME_SYSTEM":"UTC","OBJECT_NAME":"STARLINK-4621","ECCENTRICITY":"0.00020870","RA_OF_ASC_NODE":"140.5562","SITE":"AFWTR","OBJECT_ID":"2022-105AE","EPOCH":"2022-09-18T22:00:00.999936","COUNTRY_CODE":"US","FILE":"3577422","SEMIMAJOR_AXIS":"6766.829"},{"MEAN_MOTION_DDOT":"0.0000000000000","BSTAR":"-0.01682100000000","CENTER_NAME":"EARTH","OBJECT_NAME":"STARLINK-4579","APOAPSIS":"390.181","PERIOD":"92.329","TIME_SYSTEM":"UTC","ELEMENT_SET_NO":"999","REV_AT_EPOCH":"322","REF_FRAME":"TEME","INCLINATION":"97.6556","GP_ID":"212941061","CLASSIFICATION_TYPE":"U","MEAN_MOTION":"15.59633287","EPOCH":"2022-09-18T22:00:00.999936","SEMIMAJOR_AXIS":"6766.855","FILE":"3577357","COUNTRY_CODE":"US","ECCENTRICITY":"0.00021590","SITE":"AFWTR","RA_OF_ASC_NODE":"140.5569","OBJECT_ID":"2022-105AF","MEAN_MOTION_DOT":"-0.01202986","NORAD_CAT_ID":"53677","MEAN_ANOMALY":"247.5739","RCS_SIZE":"LARGE","OBJECT_TYPE":"PAYLOAD","LAUNCH_DATE":"2022-08-31","TLE_LINE2":"2 53677  97.6556 140.5569 0002159 144.7989 247.5739 15.59633287  3220","EPHEMERIS_TYPE":"0","ARG_OF_PERICENTER":"144.7989","PERIAPSIS":"387.259","DECAY_DATE":null,"MEAN_ELEMENT_THEORY":"SGP4","TLE_LINE1":"1 53677U 22105AF  22261.91667824 -.01202986  00000-0 -16821-1 0  9993"}];
